<?xml version="1.0" encoding="utf-8"?>
<ndm xmlns:xsi="http://www.w3.org/2001/XMLSchema-instance" xsi:noNamespaceSchemaLocation="http://sanaregistry.org/r/ndmxml/ndmxml-1.0-master.xsd"><omm id="CCSDS_OMM_VERS" version="2.0"><header><COMMENT>GENERATED VIA SPACE-TRACK.ORG API</COMMENT><CREATION_DATE>2019-06-30T06:30:17</CREATION_DATE><ORIGINATOR>18 SPCS</ORIGINATOR></header><body><segment><metadata><OBJECT_NAME>LANDSAT 8</OBJECT_NAME><OBJECT_ID>2013-008A</OBJECT_ID><CENTER_NAME>EARTH</CENTER_NAME><REF_FRAME>TEME</REF_FRAME><TIME_SYSTEM>UTC</TIME_SYSTEM><MEAN_ELEMENT_THEORY>SGP4</MEAN_ELEMENT_THEORY></metadata><data><meanElements><EPOCH>2019-06-30T03:54:05.276448</EPOCH><MEAN_MOTION>14.57107229</MEAN_MOTION><ECCENTRICITY>0.00012150</ECCENTRICITY><INCLINATION>98.2231</INCLINATION><RA_OF_ASC_NODE>250.9904</RA_OF_ASC_NODE><ARG_OF_PERICENTER>92.5333</ARG_OF_PERICENTER><MEAN_ANOMALY>267.6012</MEAN_ANOMALY></meanElements><tleParameters><EPHEMERIS_TYPE>0</EPHEMERIS_TYPE><CLASSIFICATION_TYPE>U</CLASSIFICATION_TYPE><NORAD_CAT_ID>39084</NORAD_CAT_ID><ELEMENT_SET_NO>999</ELEMENT_SET_NO><REV_AT_EPOCH>33925</REV_AT_EPOCH><BSTAR>0.00001228500000</BSTAR><MEAN_MOTION_DOT>0.00000010</MEAN_MOTION_DOT><MEAN_MOTION_DDOT>0.0000000000000</MEAN_MOTION_DDOT></tleParameters><userDefinedParameters><USER_DEFINED parameter="SEMIMAJOR_AXIS">7080.666</USER_DEFINED><USER_DEFINED parameter="PERIOD">98.825</USER_DEFINED><USER_DEFINED parameter="APOAPSIS">703.392</USER_DEFINED><USER_DEFINED parameter="PERIAPSIS">701.671</USER_DEFINED><USER_DEFINED parameter="OBJECT_TYPE">PAYLOAD</USER_DEFINED><USER_DEFINED parameter="RCS_SIZE">LARGE</USER_DEFINED><USER_DEFINED parameter="COUNTRY_CODE">US</USER_DEFINED><USER_DEFINED parameter="LAUNCH_DATE">2013-02-11</USER_DEFINED><USER_DEFINED parameter="SITE">AFWTR</USER_DEFINED><USER_DEFINED parameter="DECAY_DATE"/><USER_DEFINED parameter="FILE">2502705</USER_DEFINED><USER_DEFINED parameter="GP_ID">134257453</USER_DEFINED></userDefinedParameters></data></segment></body></omm><omm id="CCSDS_OMM_VERS" version="2.0"><header><COMMENT>GENERATED VIA SPACE-TRACK.ORG API</COMMENT><CREATION_DATE>2019-06-30T14:30:17</CREATION_DATE><ORIGINATOR>18 SPCS</ORIGINATOR></header><body><segment><metadata><OBJECT_NAME>LANDSAT 8</OBJECT_NAME><OBJECT_ID>2013-008A</OBJECT_ID><CENTER_NAME>EARTH</CENTER_NAME><REF_FRAME>TEME</REF_FRAME><TIME_SYSTEM>UTC</TIME_SYSTEM><MEAN_ELEMENT_THEORY>SGP4</MEAN_ELEMENT_THEORY></metadata><data><meanElements><EPOCH>2019-06-30T10:29:37.515264</EPOCH><MEAN_MOTION>14.57107430</MEAN_MOTION><ECCENTRICITY>0.00012000</ECCENTRICITY><INCLINATION>98.2231</INCLINATION><RA_OF_ASC_NODE>251.2619</RA_OF_ASC_NODE><ARG_OF_PERICENTER>90.8176</ARG_OF_PERICENTER><MEAN_ANOMALY>269.3167</MEAN_ANOMALY></meanElements><tleParameters><EPHEMERIS_TYPE>0</EPHEMERIS_TYPE><CLASSIFICATION_TYPE>U</CLASSIFICATION_TYPE><NORAD_CAT_ID>39084</NORAD_CAT_ID><ELEMENT_SET_NO>999</ELEMENT_SET_NO><REV_AT_EPOCH>33929</REV_AT_EPOCH><BSTAR>0.00001568400000</BSTAR><MEAN_MOTION_DOT>0.00000025</MEAN_MOTION_DOT><MEAN_MOTION_DDOT>0.0000000000000</MEAN_MOTION_DDOT></tleParameters><userDefinedParameters><USER_DEFINED parameter="SEMIMAJOR_AXIS">7080.666</USER_DEFINED><USER_DEFINED parameter="PERIOD">98.825</USER_DEFINED><USER_DEFINED parameter="APOAPSIS">703.380</USER_DEFINED><USER_DEFINED parameter="PERIAPSIS">701.681</USER_DEFINED><USER_DEFINED parameter="OBJECT_TYPE">PAYLOAD</USER_DEFINED><USER_DEFINED parameter="RCS_SIZE">LARGE</USER_DEFINED><USER_DEFINED parameter="COUNTRY_CODE">US</USER_DEFINED><USER_DEFINED parameter="LAUNCH_DATE">2013-02-11</USER_DEFINED><USER_DEFINED parameter="SITE">AFWTR</USER_DEFINED><USER_DEFINED parameter="DECAY_DATE"/><USER_DEFINED parameter="FILE">2502888</USER_DEFINED><USER_DEFINED parameter="GP_ID">134261026</USER_DEFINED></userDefinedParameters></data></segment></body></omm><omm id="CCSDS_OMM_VERS" version="2.0"><header><COMMENT>GENERATED VIA SPACE-TRACK.ORG API</COMMENT><CREATION_DATE>2019-06-30T22:30:17</CREATION_DATE><ORIGINATOR>18 SPCS</ORIGINATOR></header><body><segment><metadata><OBJECT_NAME>LANDSAT 8</OBJECT_NAME><OBJECT_ID>2013-008A</OBJECT_ID><CENTER_NAME>EARTH</CENTER_NAME><REF_FRAME>TEME</REF_FRAME><TIME_SYSTEM>UTC</TIME_SYSTEM><MEAN_ELEMENT_THEORY>SGP4</MEAN_ELEMENT_THEORY></metadata><data><meanElements><EPOCH>2019-06-30T18:44:02.812704</EPOCH><MEAN_MOTION>14.57107481</MEAN_MOTION><ECCENTRICITY>0.00012160</ECCENTRICITY><INCLINATION>98.2231</INCLINATION><RA_OF_ASC_NODE>251.6008</RA_OF_ASC_NODE><ARG_OF_PERICENTER>92.0544</ARG_OF_PERICENTER><MEAN_ANOMALY>268.0792</MEAN_ANOMALY></meanElements><tleParameters><EPHEMERIS_TYPE>0</EPHEMERIS_TYPE><CLASSIFICATION_TYPE>U</CLASSIFICATION_TYPE><NORAD_CAT_ID>39084</NORAD_CAT_ID><ELEMENT_SET_NO>999</ELEMENT_SET_NO><REV_AT_EPOCH>33934</REV_AT_EPOCH><BSTAR>0.00001549500000</BSTAR><MEAN_MOTION_DOT>0.00000024</MEAN_MOTION_DOT><MEAN_MOTION_DDOT>0.0000000000000</MEAN_MOTION_DDOT></tleParameters><userDefinedParameters><USER_DEFINED parameter="SEMIMAJOR_AXIS">7080.666</USER_DEFINED><USER_DEFINED parameter="PERIOD">98.825</USER_DEFINED><USER_DEFINED parameter="APOAPSIS">703.392</USER_DEFINED><USER_DEFINED parameter="PERIAPSIS">701.670</USER_DEFINED><USER_DEFINED parameter="OBJECT_TYPE">PAYLOAD</USER_DEFINED><USER_DEFINED parameter="RCS_SIZE">LARGE</USER_DEFINED><USER_DEFINED parameter="COUNTRY_CODE">US</USER_DEFINED><USER_DEFINED parameter="LAUNCH_DATE">2013-02-11</USER_DEFINED><USER_DEFINED parameter="SITE">AFWTR</USER_DEFINED><USER_DEFINED parameter="DECAY_DATE"/><USER_DEFINED parameter="FILE">2503097</USER_DEFINED><USER_DEFINED parameter="GP_ID">134303425</USER_DEFINED></userDefinedParameters></data></segment></body></omm></ndm>
