0 LANDSAT 8
1 39084U 13008A   19181.78058811  .00000024  00000-0  15495-4 0  9998
2 39084  98.2231 251.6008 0001216  92.0544 268.0792 14.57107481339341
0 LANDSAT 8
1 39084U 13008A   19181.43723976  .00000025  00000-0  15684-4 0  9992
2 39084  98.2231 251.2619 0001200  90.8176 269.3167 14.57107430339293
0 LANDSAT 8
1 39084U 13008A   19181.16256107  .00000010  00000-0  12285-4 0  9997
2 39084  98.2231 250.9904 0001215  92.5333 267.6012 14.57107229339258
